start=new Date('2021-11-30T00:00:00.000Z').valueOf();
sats=[{"SITE":"AFETR","COUNTRY_CODE":"US","RA_OF_ASC_NODE":"263.5860","MEAN_MOTION_DDOT":"0.0000000000000","ARG_OF_PERICENTER":"64.7955","EPOCH":"2021-11-29T19:58:22.849824","TLE_LINE2":"2 46067  53.0542 263.5860 0001961  64.7955 295.3237 15.06401506 74052","DECAY_DATE":null,"REV_AT_EPOCH":"7405","NORAD_CAT_ID":"46067","SEMIMAJOR_AXIS":"6925.344","PERIOD":"95.592","ELEMENT_SET_NO":"999","GP_ID":"190748546","CLASSIFICATION_TYPE":"U","MEAN_MOTION_DOT":"0.00000661","ECCENTRICITY":"0.00019610","LAUNCH_DATE":"2020-08-07","BSTAR":"0.00006329500000","OBJECT_NAME":"STARLINK-1529","PERIAPSIS":"545.851","RCS_SIZE":"LARGE","EPHEMERIS_TYPE":"0","INCLINATION":"53.0542","MEAN_ELEMENT_THEORY":"SGP4","MEAN_ANOMALY":"295.3237","MEAN_MOTION":"15.06401506","APOAPSIS":"548.567","TLE_LINE1":"1 46067U 20055AS  21333.83220891  .00000661  00000-0  63295-4 0  9992","FILE":"3227094","TIME_SYSTEM":"UTC","OBJECT_ID":"2020-055AS","CENTER_NAME":"EARTH","OBJECT_TYPE":"PAYLOAD","REF_FRAME":"TEME"},{"OBJECT_NAME":"STARLINK-1532","MEAN_MOTION_DOT":"0.00000920","CLASSIFICATION_TYPE":"U","LAUNCH_DATE":"2020-08-07","BSTAR":"0.00008069800000","ECCENTRICITY":"0.00019040","MEAN_MOTION":"15.06398103","RCS_SIZE":"LARGE","INCLINATION":"53.0525","EPHEMERIS_TYPE":"0","MEAN_ELEMENT_THEORY":"SGP4","MEAN_ANOMALY":"300.3216","PERIAPSIS":"545.901","FILE":"3227094","TLE_LINE1":"1 46068U 20055AT  21333.77692078  .00000920  00000-0  80698-4 0  9990","APOAPSIS":"548.538","OBJECT_TYPE":"PAYLOAD","REF_FRAME":"TEME","CENTER_NAME":"EARTH","OBJECT_ID":"2020-055AT","TIME_SYSTEM":"UTC","MEAN_MOTION_DDOT":"0.0000000000000","COUNTRY_CODE":"US","RA_OF_ASC_NODE":"263.8208","SITE":"AFETR","EPOCH":"2021-11-29T18:38:45.955392","ARG_OF_PERICENTER":"59.7961","DECAY_DATE":null,"TLE_LINE2":"2 46068  53.0525 263.8208 0001904  59.7961 300.3216 15.06398103 74042","PERIOD":"95.592","GP_ID":"190748797","ELEMENT_SET_NO":"999","SEMIMAJOR_AXIS":"6925.354","REV_AT_EPOCH":"7404","NORAD_CAT_ID":"46068"},{"SEMIMAJOR_AXIS":"6925.145","REV_AT_EPOCH":"7407","NORAD_CAT_ID":"46069","PERIOD":"95.588","GP_ID":"190748526","ELEMENT_SET_NO":"999","DECAY_DATE":null,"TLE_LINE2":"2 46069  53.0533 263.1641 0001666  50.0891 310.0244 15.06466422 74079","EPOCH":"2021-11-29T22:11:04.295328","ARG_OF_PERICENTER":"50.0891","RA_OF_ASC_NODE":"263.1641","COUNTRY_CODE":"US","SITE":"AFETR","MEAN_MOTION_DDOT":"0.0000000000000","OBJECT_ID":"2020-055AU","TIME_SYSTEM":"UTC","OBJECT_TYPE":"PAYLOAD","REF_FRAME":"TEME","CENTER_NAME":"EARTH","FILE":"3227094","APOAPSIS":"548.164","TLE_LINE1":"1 46069U 20055AU  21333.92435527 -.00013582  00000-0 -89299-3 0  9997","EPHEMERIS_TYPE":"0","RCS_SIZE":"LARGE","INCLINATION":"53.0533","MEAN_ELEMENT_THEORY":"SGP4","MEAN_ANOMALY":"310.0244","PERIAPSIS":"545.856","MEAN_MOTION":"15.06466422","OBJECT_NAME":"STARLINK-1533","CLASSIFICATION_TYPE":"U","MEAN_MOTION_DOT":"-0.00013582","LAUNCH_DATE":"2020-08-07","ECCENTRICITY":"0.00016660","BSTAR":"-0.00089299000000"},{"MEAN_MOTION":"15.06403041","PERIAPSIS":"545.875","INCLINATION":"53.0542","RCS_SIZE":"LARGE","EPHEMERIS_TYPE":"0","MEAN_ELEMENT_THEORY":"SGP4","MEAN_ANOMALY":"296.9366","MEAN_MOTION_DOT":"0.00002273","CLASSIFICATION_TYPE":"U","LAUNCH_DATE":"2020-08-07","BSTAR":"0.00017146000000","ECCENTRICITY":"0.00019200","OBJECT_NAME":"STARLINK-1536","CENTER_NAME":"EARTH","OBJECT_TYPE":"PAYLOAD","REF_FRAME":"TEME","TIME_SYSTEM":"UTC","OBJECT_ID":"2020-055AV","TLE_LINE1":"1 46070U 20055AV  21333.54101561  .00002273  00000-0  17146-3 0  9990","APOAPSIS":"548.534","FILE":"3226769","ARG_OF_PERICENTER":"63.1819","EPOCH":"2021-11-29T12:59:03.748704","MEAN_MOTION_DDOT":"0.0000000000000","SITE":"AFETR","COUNTRY_CODE":"US","RA_OF_ASC_NODE":"264.8844","PERIOD":"95.592","GP_ID":"190696746","ELEMENT_SET_NO":"999","REV_AT_EPOCH":"7347","NORAD_CAT_ID":"46070","SEMIMAJOR_AXIS":"6925.339","TLE_LINE2":"2 46070  53.0542 264.8844 0001920  63.1819 296.9366 15.06403041 73470","DECAY_DATE":null},{"PERIOD":"95.592","ELEMENT_SET_NO":"999","GP_ID":"190748047","REV_AT_EPOCH":"7404","NORAD_CAT_ID":"46071","SEMIMAJOR_AXIS":"6925.322","TLE_LINE2":"2 46071  53.0538 263.9202 0001958  69.0697 291.0502 15.06408732 74048","DECAY_DATE":null,"ARG_OF_PERICENTER":"69.0697","EPOCH":"2021-11-29T18:12:12.840480","MEAN_MOTION_DDOT":"0.0000000000000","SITE":"AFETR","COUNTRY_CODE":"US","RA_OF_ASC_NODE":"263.9202","CENTER_NAME":"EARTH","OBJECT_TYPE":"PAYLOAD","REF_FRAME":"TEME","OBJECT_ID":"2020-055AW","TIME_SYSTEM":"UTC","APOAPSIS":"548.543","TLE_LINE1":"1 46071U 20055AW  21333.75848195  .00000864  00000-0  76878-4 0  9997","FILE":"3227094","MEAN_MOTION":"15.06408732","PERIAPSIS":"545.831","RCS_SIZE":"LARGE","INCLINATION":"53.0538","EPHEMERIS_TYPE":"0","MEAN_ELEMENT_THEORY":"SGP4","MEAN_ANOMALY":"291.0502","MEAN_MOTION_DOT":"0.00000864","CLASSIFICATION_TYPE":"U","ECCENTRICITY":"0.00019580","LAUNCH_DATE":"2020-08-07","BSTAR":"0.00007687800000","OBJECT_NAME":"STARLINK-1538"},{"ARG_OF_PERICENTER":"9.7654","EPOCH":"2021-11-29T20:23:34.734048","MEAN_MOTION_DDOT":"0.0000000000000","SITE":"AFETR","RA_OF_ASC_NODE":"263.4896","COUNTRY_CODE":"US","PERIOD":"95.593","GP_ID":"190748298","ELEMENT_SET_NO":"999","REV_AT_EPOCH":"7404","NORAD_CAT_ID":"46072","SEMIMAJOR_AXIS":"6925.398","TLE_LINE2":"2 46072  53.0551 263.4896 0002182   9.7654 350.3377 15.06384010 74043","DECAY_DATE":null,"MEAN_MOTION":"15.06384010","PERIAPSIS":"545.751","RCS_SIZE":"LARGE","EPHEMERIS_TYPE":"0","INCLINATION":"53.0551","MEAN_ANOMALY":"350.3377","MEAN_ELEMENT_THEORY":"SGP4","CLASSIFICATION_TYPE":"U","MEAN_MOTION_DOT":"-0.00001284","LAUNCH_DATE":"2020-08-07","ECCENTRICITY":"0.00021820","BSTAR":"-0.00006731900000","OBJECT_NAME":"STARLINK-1539","CENTER_NAME":"EARTH","OBJECT_TYPE":"PAYLOAD","REF_FRAME":"TEME","TIME_SYSTEM":"UTC","OBJECT_ID":"2020-055AX","APOAPSIS":"548.774","TLE_LINE1":"1 46072U 20055AX  21333.84970757 -.00001284  00000-0 -67319-4 0  9997","FILE":"3227094"},{"EPOCH":"2021-11-29T22:21:41.578272","ARG_OF_PERICENTER":"62.7059","MEAN_MOTION_DDOT":"0.0000000000000","RA_OF_ASC_NODE":"263.1438","COUNTRY_CODE":"US","SITE":"AFETR","PERIOD":"95.592","GP_ID":"190749026","ELEMENT_SET_NO":"999","SEMIMAJOR_AXIS":"6925.364","REV_AT_EPOCH":"7406","NORAD_CAT_ID":"46073","DECAY_DATE":null,"TLE_LINE2":"2 46073  53.0546 263.1438 0001998  62.7059 297.4134 15.06395000 74064","MEAN_MOTION":"15.06395000","INCLINATION":"53.0546","RCS_SIZE":"LARGE","EPHEMERIS_TYPE":"0","MEAN_ANOMALY":"297.4134","MEAN_ELEMENT_THEORY":"SGP4","PERIAPSIS":"545.845","OBJECT_NAME":"STARLINK-1542","CLASSIFICATION_TYPE":"U","MEAN_MOTION_DOT":"0.00000871","LAUNCH_DATE":"2020-08-07","ECCENTRICITY":"0.00019980","BSTAR":"0.00007737500000","OBJECT_TYPE":"PAYLOAD","REF_FRAME":"TEME","CENTER_NAME":"EARTH","TIME_SYSTEM":"UTC","OBJECT_ID":"2020-055AY","FILE":"3227094","APOAPSIS":"548.613","TLE_LINE1":"1 46073U 20055AY  21333.93173123  .00000871  00000-0  77375-4 0  9992"},{"ARG_OF_PERICENTER":"58.4783","EPOCH":"2021-11-29T12:27:12.899520","SITE":"AFETR","RA_OF_ASC_NODE":"264.9877","COUNTRY_CODE":"US","MEAN_MOTION_DDOT":"0.0000000000000","NORAD_CAT_ID":"46074","REV_AT_EPOCH":"7399","SEMIMAJOR_AXIS":"6925.340","ELEMENT_SET_NO":"999","GP_ID":"190720204","PERIOD":"95.592","TLE_LINE2":"2 46074  53.0542 264.9877 0001738  58.4783 301.6376 15.06402745 73997","DECAY_DATE":null,"PERIAPSIS":"546.002","MEAN_ANOMALY":"301.6376","MEAN_ELEMENT_THEORY":"SGP4","RCS_SIZE":"LARGE","EPHEMERIS_TYPE":"0","INCLINATION":"53.0542","MEAN_MOTION":"15.06402745","ECCENTRICITY":"0.00017380","LAUNCH_DATE":"2020-08-07","BSTAR":"0.00009550300000","CLASSIFICATION_TYPE":"U","MEAN_MOTION_DOT":"0.00001141","OBJECT_NAME":"STARLINK-1549","OBJECT_ID":"2020-055AZ","TIME_SYSTEM":"UTC","CENTER_NAME":"EARTH","REF_FRAME":"TEME","OBJECT_TYPE":"PAYLOAD","TLE_LINE1":"1 46074U 20055AZ  21333.51889930  .00001141  00000-0  95503-4 0  9991","APOAPSIS":"548.409","FILE":"3226898"},{"ARG_OF_PERICENTER":"67.3013","EPOCH":"2021-11-29T13:04:22.187136","MEAN_MOTION_DDOT":"0.0000000000000","SITE":"AFETR","COUNTRY_CODE":"US","RA_OF_ASC_NODE":"264.8805","ELEMENT_SET_NO":"999","GP_ID":"190696484","PERIOD":"95.592","NORAD_CAT_ID":"46075","REV_AT_EPOCH":"7347","SEMIMAJOR_AXIS":"6925.323","TLE_LINE2":"2 46075  53.0530 264.8805 0002053  67.3013 292.8193 15.06408406 73472","DECAY_DATE":null,"MEAN_MOTION":"15.06408406","PERIAPSIS":"545.766","MEAN_ELEMENT_THEORY":"SGP4","MEAN_ANOMALY":"292.8193","INCLINATION":"53.0530","RCS_SIZE":"LARGE","EPHEMERIS_TYPE":"0","LAUNCH_DATE":"2020-08-07","ECCENTRICITY":"0.00020530","BSTAR":"0.00031535000000","CLASSIFICATION_TYPE":"U","MEAN_MOTION_DOT":"0.00004420","OBJECT_NAME":"STARLINK-1551","CENTER_NAME":"EARTH","REF_FRAME":"TEME","OBJECT_TYPE":"PAYLOAD","TIME_SYSTEM":"UTC","OBJECT_ID":"2020-055BA","APOAPSIS":"548.610","TLE_LINE1":"1 46075U 20055BA  21333.54470124  .00004420  00000-0  31535-3 0  9993","FILE":"3226780"},{"PERIAPSIS":"545.788","MEAN_ELEMENT_THEORY":"SGP4","MEAN_ANOMALY":"302.7311","RCS_SIZE":"LARGE","INCLINATION":"53.0538","EPHEMERIS_TYPE":"0","MEAN_MOTION":"15.06406235","BSTAR":"0.00005674400000","LAUNCH_DATE":"2020-08-07","ECCENTRICITY":"0.00020310","CLASSIFICATION_TYPE":"U","MEAN_MOTION_DOT":"0.00000564","OBJECT_NAME":"STARLINK-1552","OBJECT_ID":"2020-055BB","TIME_SYSTEM":"UTC","CENTER_NAME":"EARTH","REF_FRAME":"TEME","OBJECT_TYPE":"PAYLOAD","TLE_LINE1":"1 46076U 20055BB  21333.83589173  .00000564  00000-0  56744-4 0  9996","APOAPSIS":"548.601","FILE":"3227094","ARG_OF_PERICENTER":"57.3873","EPOCH":"2021-11-29T20:03:41.045472","SITE":"AFETR","COUNTRY_CODE":"US","RA_OF_ASC_NODE":"263.5721","MEAN_MOTION_DDOT":"0.0000000000000","NORAD_CAT_ID":"46076","REV_AT_EPOCH":"7403","SEMIMAJOR_AXIS":"6925.329","ELEMENT_SET_NO":"999","GP_ID":"190748798","PERIOD":"95.592","TLE_LINE2":"2 46076  53.0538 263.5721 0002031  57.3873 302.7311 15.06406235 74037","DECAY_DATE":null}];
